[{"OBJECT_NAME":"STARLINK-4323","OBJECT_ID":"2022-077AC","EPOCH":"2026-03-09T22:26:55.446144","MEAN_MOTION":15.01248487,"ECCENTRICITY":0.00036931,"INCLINATION":97.6018,"RA_OF_ASC_NODE":250.447,"ARG_OF_PERICENTER":169.7375,"MEAN_ANOMALY":190.3925,"EPHEMERIS_TYPE":0,"CLASSIFICATION_TYPE":"U","NORAD_CAT_ID":53069,"ELEMENT_SET_NO":999,"REV_AT_EPOCH":20095,"BSTAR":8.992699e-5,"MEAN_MOTION_DOT":1.097e-5,"MEAN_MOTION_DDOT":0},{"OBJECT_NAME":"DEMOSAT\/FALCON 1","OBJECT_ID":"2008-048A","EPOCH":"2026-03-09T20:26:53.902464","MEAN_MOTION":14.96189084,"ECCENTRICITY":0.00103169,"INCLINATION":9.3439,"RA_OF_ASC_NODE":185.2154,"ARG_OF_PERICENTER":2.5079,"MEAN_ANOMALY":357.5172,"EPHEMERIS_TYPE":0,"CLASSIFICATION_TYPE":"U","NORAD_CAT_ID":33393,"ELEMENT_SET_NO":999,"REV_AT_EPOCH":94801,"BSTAR":0.00032870725,"MEAN_MOTION_DOT":4.521e-5,"MEAN_MOTION_DDOT":0}]
